ONEWEB-0228             
1 48780U 21045P   24044.57271882  .00000021  00000+0  21262-4 0  9992
2 48780  87.8942  69.2829 0001976  91.1330 269.0027 13.15548319131969
